CCSDS_OMM_VERS = 2.0
CREATION_DATE  = 
ORIGINATOR     = 

OBJECT_NAME    = RSP-03
OBJECT_ID      = 1998-067XL
CENTER_NAME    = EARTH
REF_FRAME      = TEME
TIME_SYSTEM    = UTC
MEAN_ELEMENT_THEORY = SGP/SGP4

EPOCH          = 2026-02-14T13:26:20.319360
MEAN_MOTION    = 16.20001057
ECCENTRICITY   = .0009517
INCLINATION    = 51.6104
RA_OF_ASC_NODE = 164.2588
ARG_OF_PERICENTER = 331.4445
MEAN_ANOMALY   = 28.6050

EPHEMERIS_TYPE = 0
CLASSIFICATION_TYPE = U
NORAD_CAT_ID   = 65732
ELEMENT_SET_NO = 999
REV_AT_EPOCH   = 2327
BSTAR          = .12684E-2
MEAN_MOTION_DOT = .2548887E-1
MEAN_MOTION_DDOT = .11872E-4

CCSDS_OMM_VERS = 2.0
CREATION_DATE  = 
ORIGINATOR     = 

OBJECT_NAME    = YOTSUBA-KULOVER
OBJECT_ID      = 1998-067XN
CENTER_NAME    = EARTH
REF_FRAME      = TEME
TIME_SYSTEM    = UTC
MEAN_ELEMENT_THEORY = SGP/SGP4

EPOCH          = 2026-02-14T05:52:30.921312
MEAN_MOTION    = 15.72411013
ECCENTRICITY   = .00044497
INCLINATION    = 51.6246
RA_OF_ASC_NODE = 178.0885
ARG_OF_PERICENTER = 299.8232
MEAN_ANOMALY   = 60.2324

EPHEMERIS_TYPE = 0
CLASSIFICATION_TYPE = U
NORAD_CAT_ID   = 65941
ELEMENT_SET_NO = 999
REV_AT_EPOCH   = 1980
BSTAR          = .10773507E-2
MEAN_MOTION_DOT = .148508E-2
MEAN_MOTION_DDOT = 0

CCSDS_OMM_VERS = 2.0
CREATION_DATE  = 
ORIGINATOR     = 

OBJECT_NAME    = BOTAN
OBJECT_ID      = 1998-067XP
CENTER_NAME    = EARTH
REF_FRAME      = TEME
TIME_SYSTEM    = UTC
MEAN_ELEMENT_THEORY = SGP/SGP4

EPOCH          = 2026-02-14T06:09:52.001568
MEAN_MOTION    = 15.88758377
ECCENTRICITY   = .00079734
INCLINATION    = 51.6157
RA_OF_ASC_NODE = 173.6046
ARG_OF_PERICENTER = 322.9275
MEAN_ANOMALY   = 37.1178

EPHEMERIS_TYPE = 0
CLASSIFICATION_TYPE = U
NORAD_CAT_ID   = 65942
ELEMENT_SET_NO = 999
REV_AT_EPOCH   = 1986
BSTAR          = .15238472E-2
MEAN_MOTION_DOT = .463784E-2
MEAN_MOTION_DDOT = 0

CCSDS_OMM_VERS = 2.0
CREATION_DATE  = 
ORIGINATOR     = 

OBJECT_NAME    = E-KAGAKU-1
OBJECT_ID      = 1998-067XQ
CENTER_NAME    = EARTH
REF_FRAME      = TEME
TIME_SYSTEM    = UTC
MEAN_ELEMENT_THEORY = SGP/SGP4

EPOCH          = 2026-02-13T14:38:57.410880
MEAN_MOTION    = 15.72107679
ECCENTRICITY   = .00041847
INCLINATION    = 51.6267
RA_OF_ASC_NODE = 181.3641
ARG_OF_PERICENTER = 310.1577
MEAN_ANOMALY   = 49.9054

EPHEMERIS_TYPE = 0
CLASSIFICATION_TYPE = U
NORAD_CAT_ID   = 65943
ELEMENT_SET_NO = 999
REV_AT_EPOCH   = 1970
BSTAR          = .93827869E-3
MEAN_MOTION_DOT = .127268E-2
MEAN_MOTION_DDOT = 0

CCSDS_OMM_VERS = 2.0
CREATION_DATE  = 
ORIGINATOR     = 

OBJECT_NAME    = HRC MONOBLOCK CAMERA
OBJECT_ID      = 1998-067XR
CENTER_NAME    = EARTH
REF_FRAME      = TEME
TIME_SYSTEM    = UTC
MEAN_ELEMENT_THEORY = SGP/SGP4

EPOCH          = 2026-02-14T14:07:05.479104
MEAN_MOTION    = 15.59775390
ECCENTRICITY   = .0001762
INCLINATION    = 51.6272
RA_OF_ASC_NODE = 181.8982
ARG_OF_PERICENTER = 9.3579
MEAN_ANOMALY   = 350.7447

EPHEMERIS_TYPE = 0
CLASSIFICATION_TYPE = U
NORAD_CAT_ID   = 66052
ELEMENT_SET_NO = 999
REV_AT_EPOCH   = 1878
BSTAR          = .50768E-3
MEAN_MOTION_DOT = .41188E-3
MEAN_MOTION_DDOT = 0

CCSDS_OMM_VERS = 2.0
CREATION_DATE  = 
ORIGINATOR     = 

OBJECT_NAME    = HTV-X1
OBJECT_ID      = 2025-241A
CENTER_NAME    = EARTH
REF_FRAME      = TEME
TIME_SYSTEM    = UTC
MEAN_ELEMENT_THEORY = SGP/SGP4

EPOCH          = 2026-02-14T05:08:48.534432
MEAN_MOTION    = 15.48593530
ECCENTRICITY   = .00110623
INCLINATION    = 51.6315
RA_OF_ASC_NODE = 188.3997
ARG_OF_PERICENTER = 96.9141
MEAN_ANOMALY   = 263.3106

EPHEMERIS_TYPE = 0
CLASSIFICATION_TYPE = U
NORAD_CAT_ID   = 66174
ELEMENT_SET_NO = 999
REV_AT_EPOCH   = 51
BSTAR          = .16303535E-3
MEAN_MOTION_DOT = .8429E-4
MEAN_MOTION_DDOT = 0

CCSDS_OMM_VERS = 2.0
CREATION_DATE  = 
ORIGINATOR     = 

OBJECT_NAME    = SZ-21 MODULE
OBJECT_ID      = 2025-246C
CENTER_NAME    = EARTH
REF_FRAME      = TEME
TIME_SYSTEM    = UTC
MEAN_ELEMENT_THEORY = SGP/SGP4

EPOCH          = 2026-02-14T04:23:26.125728
MEAN_MOTION    = 15.66742900
ECCENTRICITY   = .0002276
INCLINATION    = 41.4766
RA_OF_ASC_NODE = 347.8589
ARG_OF_PERICENTER = 294.3248
MEAN_ANOMALY   = 65.7355

EPHEMERIS_TYPE = 0
CLASSIFICATION_TYPE = U
NORAD_CAT_ID   = 66515
ELEMENT_SET_NO = 999
REV_AT_EPOCH   = 1438
BSTAR          = .33554E-3
MEAN_MOTION_DOT = .36199E-3
MEAN_MOTION_DDOT = 0

CCSDS_OMM_VERS = 2.0
CREATION_DATE  = 
ORIGINATOR     = 

OBJECT_NAME    = SHENZHOU-22
OBJECT_ID      = 2025-272A
CENTER_NAME    = EARTH
REF_FRAME      = TEME
TIME_SYSTEM    = UTC
MEAN_ELEMENT_THEORY = SGP/SGP4

EPOCH          = 2026-02-14T05:20:28.941216
MEAN_MOTION    = 15.59592517
ECCENTRICITY   = .00041385
INCLINATION    = 41.4681
RA_OF_ASC_NODE = 350.8379
ARG_OF_PERICENTER = 88.4317
MEAN_ANOMALY   = 271.6995

EPHEMERIS_TYPE = 0
CLASSIFICATION_TYPE = U
NORAD_CAT_ID   = 66645
ELEMENT_SET_NO = 999
REV_AT_EPOCH   = 26764
BSTAR          = .21135878E-3
MEAN_MOTION_DOT = .17014E-3
MEAN_MOTION_DDOT = 0

CCSDS_OMM_VERS = 2.0
CREATION_DATE  = 
ORIGINATOR     = 

OBJECT_NAME    = SOYUZ-MS 28
OBJECT_ID      = 2025-275A
CENTER_NAME    = EARTH
REF_FRAME      = TEME
TIME_SYSTEM    = UTC
MEAN_ELEMENT_THEORY = SGP/SGP4

EPOCH          = 2026-02-14T12:53:26.369664
MEAN_MOTION    = 15.48597515
ECCENTRICITY   = .0011057
INCLINATION    = 51.6315
RA_OF_ASC_NODE = 186.8042
ARG_OF_PERICENTER = 98.0666
MEAN_ANOMALY   = 262.1577

EPHEMERIS_TYPE = 0
CLASSIFICATION_TYPE = U
NORAD_CAT_ID   = 66664
ELEMENT_SET_NO = 999
REV_AT_EPOCH   = 55274
BSTAR          = .14907E-3
MEAN_MOTION_DOT = .7669E-4
MEAN_MOTION_DDOT = 0

CCSDS_OMM_VERS = 2.0
CREATION_DATE  = 
ORIGINATOR     = 

OBJECT_NAME    = DUPLEX
OBJECT_ID      = 1998-067XS
CENTER_NAME    = EARTH
REF_FRAME      = TEME
TIME_SYSTEM    = UTC
MEAN_ELEMENT_THEORY = SGP/SGP4

EPOCH          = 2026-02-14T14:01:57.482112
MEAN_MOTION    = 15.54589478
ECCENTRICITY   = .0001358
INCLINATION    = 51.6286
RA_OF_ASC_NODE = 184.8744
ARG_OF_PERICENTER = 75.5760
MEAN_ANOMALY   = 284.5381

EPHEMERIS_TYPE = 0
CLASSIFICATION_TYPE = U
NORAD_CAT_ID   = 66906
ELEMENT_SET_NO = 999
REV_AT_EPOCH   = 1153
BSTAR          = .42811E-3
MEAN_MOTION_DOT = .28442E-3
MEAN_MOTION_DDOT = 0

CCSDS_OMM_VERS = 2.0
CREATION_DATE  = 
ORIGINATOR     = 

OBJECT_NAME    = ISS OBJECT XT
OBJECT_ID      = 1998-067XT
CENTER_NAME    = EARTH
REF_FRAME      = TEME
TIME_SYSTEM    = UTC
MEAN_ELEMENT_THEORY = SGP/SGP4

EPOCH          = 2026-02-14T14:33:55.753920
MEAN_MOTION    = 15.62956456
ECCENTRICITY   = .0002176
INCLINATION    = 51.6270
RA_OF_ASC_NODE = 182.7704
ARG_OF_PERICENTER = 303.9865
MEAN_ANOMALY   = 56.0922

EPHEMERIS_TYPE = 0
CLASSIFICATION_TYPE = U
NORAD_CAT_ID   = 66907
ELEMENT_SET_NO = 999
REV_AT_EPOCH   = 1156
BSTAR          = .99972E-3
MEAN_MOTION_DOT = .92923E-3
MEAN_MOTION_DDOT = 0

CCSDS_OMM_VERS = 2.0
CREATION_DATE  = 
ORIGINATOR     = 

OBJECT_NAME    = ISS OBJECT XU
OBJECT_ID      = 1998-067XU
CENTER_NAME    = EARTH
REF_FRAME      = TEME
TIME_SYSTEM    = UTC
MEAN_ELEMENT_THEORY = SGP/SGP4

EPOCH          = 2026-02-14T13:00:51.080832
MEAN_MOTION    = 15.62974029
ECCENTRICITY   = .0002043
INCLINATION    = 51.6259
RA_OF_ASC_NODE = 183.0859
ARG_OF_PERICENTER = 308.2832
MEAN_ANOMALY   = 51.7978

EPHEMERIS_TYPE = 0
CLASSIFICATION_TYPE = U
NORAD_CAT_ID   = 66908
ELEMENT_SET_NO = 999
REV_AT_EPOCH   = 1155
BSTAR          = .97716E-3
MEAN_MOTION_DOT = .90853E-3
MEAN_MOTION_DDOT = 0

